0 DELTA 1 DEB
1 28443U 62002E   13282.52265535  .00000170  00000-0  81326-4 0  9161
2 28443 048.2705 097.2106 0078519 308.8416 087.2588 14.53264442633368
0 DELTA 1 DEB
1 28443U 62002E   13285.48005363  .00000132  00000-0  72602-4 0  9176
2 28443 048.2712 083.6844 0078408 321.0793 079.7292 14.53266703633793
0 DELTA 1 DEB
1 28443U 62002E   13288.43650976  .00000403  00000-0  13492-3 0  9183
2 28443 048.2715 070.1623 0078265 333.3683 067.2449 14.53269963634223
0 DELTA 1 DEB
1 28443U 62002E   13291.39245530  .00000324  00000-0  11692-3 0  9191
2 28443 048.2717 056.6431 0078174 345.7161 052.0655 14.53273139634656
0 DELTA 1 DEB
1 28443U 62002E   13294.34944122  .00000374  00000-0  12833-3 0  9207
2 28443 048.2718 043.1191 0078064 358.0545 042.3748 14.53276776635085
